PRC TEST SPACECRAFT 4   
1 67689U 26024A   26048.59726335 -.00000038  00000+0  20316-4 0  9997
2 67689  49.9851 117.0907 0006185 282.7368  77.2882 14.91673749  1584
CZ-2F R/B               
1 67690U 26024B   26048.57350235  .00020566  00000+0  38285-3 0  9999
2 67690  49.9878 115.4287 0176793 191.5419 168.1462 15.33468652  1604
CZ-2F DEB               
1 67691U 26024C   26048.57069889  .00674722  10338-4  84570-3 0  9999
2 67691  49.9084 113.0714 0243114 199.2840 159.8811 15.69563050  1622
CZ-2F DEB               
1 67692U 26024D   26046.48234456  .00250388  00000+0  50496-2 0  9999
2 67692  50.3154 127.0852 0264941 192.7826 266.1908 15.15710043   623
STARLINK-36748          
1 67693U 26025A   26048.58335648 -.01570110  71588-3 -41065-2 0  9995
2 67693  97.2790 159.0274 0001456  61.1013   8.0272 15.94998396  2614
STARLINK-36753          
1 67694U 26025B   26048.58335648 -.01551873  70635-3 -38912-2 0  9990
2 67694  97.2779 159.0342 0001494  62.7372  22.4959 15.95785833  2775
STARLINK-36750          
1 67695U 26025C   26048.58335648 -.01561085  71040-3 -40206-2 0  9997
2 67695  97.2786 159.0296 0001303  72.9379   2.0811 15.95286472  2610
STARLINK-36401          
1 67696U 26025D   26048.58335648 -.01565863  71622-3 -39826-2 0  9998
2 67696  97.2783 159.0318 0001368  62.1025  17.7297 15.95522087  2619
STARLINK-36704          
1 67697U 26025E   26048.58335648 -.01552428  70879-3 -38380-2 0  9999
2 67697  97.2778 159.0360 0001398  59.8257  30.8331 15.96049049  2612
STARLINK-36697          
1 67698U 26025F   26048.58335648 -.01533037  69386-3 -37508-2 0  9997
2 67698  97.2777 159.0378 0001451  64.2756  30.3528 15.96239582  2565
STARLINK-36716          
1 67699U 26025G   26048.58335648 -.01521849  68633-3 -36729-2 0  9994
2 67699  97.2771 159.0403 0001447  57.7359  41.9874 15.96490885  2770
STARLINK-36712          
1 67700U 26025H   26048.58335648 -.01512785  68048-3 -36043-2 0  9995
2 67700  97.2773 159.0422 0001487  66.3563  38.3064 15.96727241  2560
