CCSDS_OMM_VERS = 2.0
CREATION_DATE  = 
ORIGINATOR     = 

OBJECT_NAME    = PRC TEST SPACECRAFT 4
OBJECT_ID      = 2026-024A
CENTER_NAME    = EARTH
REF_FRAME      = TEME
TIME_SYSTEM    = UTC
MEAN_ELEMENT_THEORY = SGP/SGP4

EPOCH          = 2026-02-17T14:20:03.553440
MEAN_MOTION    = 14.91673749
ECCENTRICITY   = .0006185
INCLINATION    = 49.9851
RA_OF_ASC_NODE = 117.0907
ARG_OF_PERICENTER = 282.7368
MEAN_ANOMALY   = 77.2882

EPHEMERIS_TYPE = 0
CLASSIFICATION_TYPE = U
NORAD_CAT_ID   = 67689
ELEMENT_SET_NO = 999
REV_AT_EPOCH   = 158
BSTAR          = .20315869E-4
MEAN_MOTION_DOT = -.38E-6
MEAN_MOTION_DDOT = 0

CCSDS_OMM_VERS = 2.0
CREATION_DATE  = 
ORIGINATOR     = 

OBJECT_NAME    = CZ-2F R/B
OBJECT_ID      = 2026-024B
CENTER_NAME    = EARTH
REF_FRAME      = TEME
TIME_SYSTEM    = UTC
MEAN_ELEMENT_THEORY = SGP/SGP4

EPOCH          = 2026-02-17T13:45:50.603040
MEAN_MOTION    = 15.33468652
ECCENTRICITY   = .01767939
INCLINATION    = 49.9878
RA_OF_ASC_NODE = 115.4287
ARG_OF_PERICENTER = 191.5419
MEAN_ANOMALY   = 168.1462

EPHEMERIS_TYPE = 0
CLASSIFICATION_TYPE = U
NORAD_CAT_ID   = 67690
ELEMENT_SET_NO = 999
REV_AT_EPOCH   = 160
BSTAR          = .38285407E-3
MEAN_MOTION_DOT = .20566E-3
MEAN_MOTION_DDOT = 0

CCSDS_OMM_VERS = 2.0
CREATION_DATE  = 
ORIGINATOR     = 

OBJECT_NAME    = CZ-2F DEB
OBJECT_ID      = 2026-024C
CENTER_NAME    = EARTH
REF_FRAME      = TEME
TIME_SYSTEM    = UTC
MEAN_ELEMENT_THEORY = SGP/SGP4

EPOCH          = 2026-02-17T13:41:48.384096
MEAN_MOTION    = 15.69563050
ECCENTRICITY   = .02431144
INCLINATION    = 49.9084
RA_OF_ASC_NODE = 113.0714
ARG_OF_PERICENTER = 199.2840
MEAN_ANOMALY   = 159.8811

EPHEMERIS_TYPE = 0
CLASSIFICATION_TYPE = U
NORAD_CAT_ID   = 67691
ELEMENT_SET_NO = 999
REV_AT_EPOCH   = 162
BSTAR          = .84569925E-3
MEAN_MOTION_DOT = .674722E-2
MEAN_MOTION_DDOT = .10337651E-4

CCSDS_OMM_VERS = 2.0
CREATION_DATE  = 
ORIGINATOR     = 

OBJECT_NAME    = CZ-2F DEB
OBJECT_ID      = 2026-024D
CENTER_NAME    = EARTH
REF_FRAME      = TEME
TIME_SYSTEM    = UTC
MEAN_ELEMENT_THEORY = SGP/SGP4

EPOCH          = 2026-02-15T11:34:34.569984
MEAN_MOTION    = 15.15710043
ECCENTRICITY   = .0264941
INCLINATION    = 50.3154
RA_OF_ASC_NODE = 127.0852
ARG_OF_PERICENTER = 192.7826
MEAN_ANOMALY   = 266.1908

EPHEMERIS_TYPE = 0
CLASSIFICATION_TYPE = U
NORAD_CAT_ID   = 67692
ELEMENT_SET_NO = 999
REV_AT_EPOCH   = 62
BSTAR          = .50496E-2
MEAN_MOTION_DOT = .250388E-2
MEAN_MOTION_DDOT = 0

CCSDS_OMM_VERS = 2.0
CREATION_DATE  = 
ORIGINATOR     = 

OBJECT_NAME    = STARLINK-36748
OBJECT_ID      = 2026-025A
CENTER_NAME    = EARTH
REF_FRAME      = TEME
TIME_SYSTEM    = UTC
MEAN_ELEMENT_THEORY = SGP/SGP4

EPOCH          = 2026-02-17T14:00:01.999872
MEAN_MOTION    = 15.94998396
ECCENTRICITY   = .00014563
INCLINATION    = 97.2790
RA_OF_ASC_NODE = 159.0274
ARG_OF_PERICENTER = 61.1013
MEAN_ANOMALY   = 8.0272

EPHEMERIS_TYPE = 0
CLASSIFICATION_TYPE = U
NORAD_CAT_ID   = 67693
ELEMENT_SET_NO = 999
REV_AT_EPOCH   = 261
BSTAR          = -.41065187E-2
MEAN_MOTION_DOT = -.157011E-1
MEAN_MOTION_DDOT = .71587848E-3

CCSDS_OMM_VERS = 2.0
CREATION_DATE  = 
ORIGINATOR     = 

OBJECT_NAME    = STARLINK-36753
OBJECT_ID      = 2026-025B
CENTER_NAME    = EARTH
REF_FRAME      = TEME
TIME_SYSTEM    = UTC
MEAN_ELEMENT_THEORY = SGP/SGP4

EPOCH          = 2026-02-17T14:00:01.999872
MEAN_MOTION    = 15.95785833
ECCENTRICITY   = .00014942
INCLINATION    = 97.2779
RA_OF_ASC_NODE = 159.0342
ARG_OF_PERICENTER = 62.7372
MEAN_ANOMALY   = 22.4959

EPHEMERIS_TYPE = 0
CLASSIFICATION_TYPE = U
NORAD_CAT_ID   = 67694
ELEMENT_SET_NO = 999
REV_AT_EPOCH   = 277
BSTAR          = -.38911886E-2
MEAN_MOTION_DOT = -.1551873E-1
MEAN_MOTION_DDOT = .7063505E-3

CCSDS_OMM_VERS = 2.0
CREATION_DATE  = 
ORIGINATOR     = 

OBJECT_NAME    = STARLINK-36750
OBJECT_ID      = 2026-025C
CENTER_NAME    = EARTH
REF_FRAME      = TEME
TIME_SYSTEM    = UTC
MEAN_ELEMENT_THEORY = SGP/SGP4

EPOCH          = 2026-02-17T14:00:01.999872
MEAN_MOTION    = 15.95286472
ECCENTRICITY   = .00013031
INCLINATION    = 97.2786
RA_OF_ASC_NODE = 159.0296
ARG_OF_PERICENTER = 72.9379
MEAN_ANOMALY   = 2.0811

EPHEMERIS_TYPE = 0
CLASSIFICATION_TYPE = U
NORAD_CAT_ID   = 67695
ELEMENT_SET_NO = 999
REV_AT_EPOCH   = 261
BSTAR          = -.40206069E-2
MEAN_MOTION_DOT = -.1561085E-1
MEAN_MOTION_DDOT = .71039955E-3

CCSDS_OMM_VERS = 2.0
CREATION_DATE  = 
ORIGINATOR     = 

OBJECT_NAME    = STARLINK-36401
OBJECT_ID      = 2026-025D
CENTER_NAME    = EARTH
REF_FRAME      = TEME
TIME_SYSTEM    = UTC
MEAN_ELEMENT_THEORY = SGP/SGP4

EPOCH          = 2026-02-17T14:00:01.999872
MEAN_MOTION    = 15.95522087
ECCENTRICITY   = .00013686
INCLINATION    = 97.2783
RA_OF_ASC_NODE = 159.0318
ARG_OF_PERICENTER = 62.1025
MEAN_ANOMALY   = 17.7297

EPHEMERIS_TYPE = 0
CLASSIFICATION_TYPE = U
NORAD_CAT_ID   = 67696
ELEMENT_SET_NO = 999
REV_AT_EPOCH   = 261
BSTAR          = -.3982602E-2
MEAN_MOTION_DOT = -.1565863E-1
MEAN_MOTION_DDOT = .71621521E-3

CCSDS_OMM_VERS = 2.0
CREATION_DATE  = 
ORIGINATOR     = 

OBJECT_NAME    = STARLINK-36704
OBJECT_ID      = 2026-025E
CENTER_NAME    = EARTH
REF_FRAME      = TEME
TIME_SYSTEM    = UTC
MEAN_ELEMENT_THEORY = SGP/SGP4

EPOCH          = 2026-02-17T14:00:01.999872
MEAN_MOTION    = 15.96049049
ECCENTRICITY   = .00013988
INCLINATION    = 97.2778
RA_OF_ASC_NODE = 159.0360
ARG_OF_PERICENTER = 59.8257
MEAN_ANOMALY   = 30.8331

EPHEMERIS_TYPE = 0
CLASSIFICATION_TYPE = U
NORAD_CAT_ID   = 67697
ELEMENT_SET_NO = 999
REV_AT_EPOCH   = 261
BSTAR          = -.38379969E-2
MEAN_MOTION_DOT = -.1552428E-1
MEAN_MOTION_DDOT = .70879302E-3

CCSDS_OMM_VERS = 2.0
CREATION_DATE  = 
ORIGINATOR     = 

OBJECT_NAME    = STARLINK-36697
OBJECT_ID      = 2026-025F
CENTER_NAME    = EARTH
REF_FRAME      = TEME
TIME_SYSTEM    = UTC
MEAN_ELEMENT_THEORY = SGP/SGP4

EPOCH          = 2026-02-17T14:00:01.999872
MEAN_MOTION    = 15.96239582
ECCENTRICITY   = .00014516
INCLINATION    = 97.2777
RA_OF_ASC_NODE = 159.0378
ARG_OF_PERICENTER = 64.2756
MEAN_ANOMALY   = 30.3528

EPHEMERIS_TYPE = 0
CLASSIFICATION_TYPE = U
NORAD_CAT_ID   = 67698
ELEMENT_SET_NO = 999
REV_AT_EPOCH   = 256
BSTAR          = -.37507859E-2
MEAN_MOTION_DOT = -.1533037E-1
MEAN_MOTION_DDOT = .69385809E-3

CCSDS_OMM_VERS = 2.0
CREATION_DATE  = 
ORIGINATOR     = 

OBJECT_NAME    = STARLINK-36716
OBJECT_ID      = 2026-025G
CENTER_NAME    = EARTH
REF_FRAME      = TEME
TIME_SYSTEM    = UTC
MEAN_ELEMENT_THEORY = SGP/SGP4

EPOCH          = 2026-02-17T14:00:01.999872
MEAN_MOTION    = 15.96490885
ECCENTRICITY   = .00014472
INCLINATION    = 97.2771
RA_OF_ASC_NODE = 159.0403
ARG_OF_PERICENTER = 57.7359
MEAN_ANOMALY   = 41.9874

EPHEMERIS_TYPE = 0
CLASSIFICATION_TYPE = U
NORAD_CAT_ID   = 67699
ELEMENT_SET_NO = 999
REV_AT_EPOCH   = 277
BSTAR          = -.36729101E-2
MEAN_MOTION_DOT = -.1521849E-1
MEAN_MOTION_DDOT = .68633123E-3

CCSDS_OMM_VERS = 2.0
CREATION_DATE  = 
ORIGINATOR     = 

OBJECT_NAME    = STARLINK-36712
OBJECT_ID      = 2026-025H
CENTER_NAME    = EARTH
REF_FRAME      = TEME
TIME_SYSTEM    = UTC
MEAN_ELEMENT_THEORY = SGP/SGP4

EPOCH          = 2026-02-17T14:00:01.999872
MEAN_MOTION    = 15.96727241
ECCENTRICITY   = .00014876
INCLINATION    = 97.2773
RA_OF_ASC_NODE = 159.0422
ARG_OF_PERICENTER = 66.3563
MEAN_ANOMALY   = 38.3064

EPHEMERIS_TYPE = 0
CLASSIFICATION_TYPE = U
NORAD_CAT_ID   = 67700
ELEMENT_SET_NO = 999
REV_AT_EPOCH   = 256
BSTAR          = -.36043182E-2
MEAN_MOTION_DOT = -.1512785E-1
MEAN_MOTION_DDOT = .68048398E-3

